[{"OBJECT_NAME":"IRIDIUM 113","OBJECT_ID":"2017-039A","EPOCH":"2026-03-09T21:21:34.497504","MEAN_MOTION":14.34222091,"ECCENTRICITY":0.00022411,"INCLINATION":86.4028,"RA_OF_ASC_NODE":3.6669,"ARG_OF_PERICENTER":81.1883,"MEAN_ANOMALY":278.9567,"EPHEMERIS_TYPE":0,"CLASSIFICATION_TYPE":"U","NORAD_CAT_ID":42803,"ELEMENT_SET_NO":999,"REV_AT_EPOCH":45695,"BSTAR":0.00014821747,"MEAN_MOTION_DOT":4.35e-6,"MEAN_MOTION_DDOT":0},{"OBJECT_NAME":"FENGYUN 1C DEB","OBJECT_ID":"1999-025TA","EPOCH":"2026-03-09T18:55:31.468224","MEAN_MOTION":14.15017045,"ECCENTRICITY":0.00890659,"INCLINATION":99.2663,"RA_OF_ASC_NODE":186.6529,"ARG_OF_PERICENTER":260.4786,"MEAN_ANOMALY":229.5094,"EPHEMERIS_TYPE":0,"CLASSIFICATION_TYPE":"U","NORAD_CAT_ID":30145,"ELEMENT_SET_NO":999,"REV_AT_EPOCH":97426,"BSTAR":0.0030248667,"MEAN_MOTION_DOT":6.041e-5,"MEAN_MOTION_DDOT":0}]
